name,company,address1,address2,city,state,zip,country,resi
Bob,,1 Main St,,Dayton,ME,04005,US,Y
Sue,,2 Main St,,Dayton,ME,04005,US,Y
Bob,,4 Main St,,Dayton,ME,04005,US,Y
Sue,,34253 Main St,,Dayton,ME,04005,US,Y
Bob,,9999 Main St,,Dayton,ME,04005,US,Y
Sue,,1 Main St,,Dayton,ME,04005,US,Y
Bob,,1 Main St,,Dayton,ME,04005,US,Y
Sue,,1 Main St,,Dayton,ME,04005,US,Y
Bob,,1 Main St,,Dayton,ME,04005,US,Y
Sue,,1 Main St,,Dayton,ME,04005,US,Y
Bob,,1 Main St,,Dayton,ME,04005,US,Y
Sue,,1 Main St,,Dayton,ME,04005,US,Y
Bob,,1 Main St,,Dayton,ME,04005,US,Y
Sue,,1 Main St,,Dayton,ME,04005,US,Y
Bob,,1 Main St,,Dayton,ME,04005,US,Y
Sue,,1 Main St,,Dayton,ME,04005,US,Y
Bob,,1 Main St,,Dayton,ME,04005,US,Y
Sue,,1 Main St,,Dayton,ME,04005,US,Y
Bob,,1 Main St,,Dayton,ME,04005,US,Y
Sue,,1 Main St,,Dayton,ME,04005,US,Y
Bob,,1 Main St,,Dayton,ME,04005,US,Y
Sue,,1 Main St,,Dayton,ME,04005,US,Y
Bob,,1 Main St,,Dayton,ME,04005,US,Y
Sue,,1 Main St,,Dayton,ME,04005,US,Y
Bob,,1 Main St,,Dayton,ME,04005,US,Y
Sue,,1 Main St,,Dayton,ME,04005,US,Y
Bob,,1 Main St,,Dayton,ME,04005,US,Y
Sue,,1 Main St,,Dayton,ME,04005,US,Y
Bob,,1 Main St,,Dayton,ME,04005,US,Y
Sue,,1 Main St,,Dayton,ME,04005,US,Y
Bob,,1 Main St,,Dayton,ME,04005,US,Y
Sue,,1 Main St,,Dayton,ME,04005,US,Y
Bob,,1 Main St,,Dayton,ME,04005,US,Y
Sue,,1 Main St,,Dayton,ME,04005,US,Y
Bob,,1 Main St,,Dayton,ME,04005,US,Y
Sue,,1 Main St,,Dayton,ME,04005,US,Y
Bob,,1 Main St,,Dayton,ME,04005,US,Y
Sue,,1 Main St,,Dayton,ME,04005,US,Y
Bob,,1 Main St,,Dayton,ME,04005,US,Y
Sue,,1 Main St,,Dayton,ME,04005,US,Y
Bob,,1 Main St,,Dayton,ME,04005,US,Y
Sue,,1 Main St,,Dayton,ME,04005,US,Y
Bob,,1 Main St,,Dayton,ME,04005,US,Y
Sue,,1 Main St,,Dayton,ME,04005,US,Y
Bob,,1 Main St,,Dayton,ME,04005,US,Y
Sue,,1 Main St,,Dayton,ME,04005,US,Y
Bob,,1 Main St,,Dayton,ME,04005,US,Y
Sue,,1 Main St,,Dayton,ME,04005,US,Y
Bob,,1 Main St,,Dayton,ME,04005,US,Y
Sue,,1 Main St,,Dayton,ME,04005,US,Y
Bob,,1 Main St,,Dayton,ME,04005,US,Y
Sue,,1 Main St,,Dayton,ME,04005,US,Y
Bob,,1 Main St,,Dayton,ME,04005,US,Y
Sue,,1 Main St,,Dayton,ME,04005,US,Y
Bob,,1 Main St,,Dayton,ME,04005,US,Y
Sue,,1 Main St,,Dayton,ME,04005,US,Y
Bob,,1 Main St,,Dayton,ME,04005,US,Y
Sue,,1 Main St,,Dayton,ME,04005,US,Y
Bob,,1 Main St,,Dayton,ME,04005,US,Y
Sue,,1 Main St,,Dayton,ME,04005,US,Y
Bob,,1 Main St,,Dayton,ME,04005,US,Y
Sue,,1 Main St,,Dayton,ME,04005,US,Y
Bob,,1 Main St,,Dayton,ME,04005,US,Y
Sue,,1 Main St,,Dayton,ME,04005,US,Y
Bob,,1 Main St,,Dayton,ME,04005,US,Y
Sue,,1 Main St,,Dayton,ME,04005,US,Y
Bob,,1 Main St,,Dayton,ME,04005,US,Y
Sue,,1 Main St,,Dayton,ME,04005,US,Y
Bob,,1 Main St,,Dayton,ME,04005,US,Y
Sue,,1 Main St,,Dayton,ME,04005,US,Y
Bob,,1 Main St,,Dayton,ME,04005,US,Y
Sue,,1 Main St,,Dayton,ME,04005,US,Y
Bob,,1 Main St,,Dayton,ME,04005,US,Y
Sue,,1 Main St,,Dayton,ME,04005,US,Y
Bob,,1 Main St,,Dayton,ME,04005,US,Y
Sue,,1 Main St,,Dayton,ME,04005,US,Y
Bob,,1 Main St,,Dayton,ME,04005,US,Y
Sue,,1 Main St,,Dayton,ME,04005,US,Y
Bob,,1 Main St,,Dayton,ME,04005,US,Y
Sue,,1 Main St,,Dayton,ME,04005,US,Y
Bob,,1 Main St,,Dayton,ME,04005,US,Y
Sue,,1 Main St,,Dayton,ME,04005,US,Y
Bob,,1 Main St,,Dayton,ME,04005,US,Y
Sue,,1 Main St,,Dayton,ME,04005,US,Y
Bob,,1 Main St,,Dayton,ME,04005,US,Y
Sue,,1 Main St,,Dayton,ME,04005,US,Y
Bob,,1 Main St,,Dayton,ME,04005,US,Y
Sue,,1 Main St,,Dayton,ME,04005,US,Y
Bob,,1 Main St,,Dayton,ME,04005,US,Y
Sue,,1 Main St,,Dayton,ME,04005,US,Y
